TJS-4                   
1 44637U 19070A   26065.81209678 -.00000174  00000+0  00000+0 0  9992
2 44637   0.0635 279.9248 0001534  83.4311 177.0018  1.00280065 23443
BEIDOU-3 IGSO-3         
1 44709U 19073A   26063.99963149 -.00000162  00000+0  00000+0 0  9999
2 44709  54.9773 282.0232 0040551 188.9231 171.0493  1.00269134 23418
TIBA-1                  
1 44800U 19080A   26063.79836745  .00000145  00000+0  00000+0 0  9998
2 44800   0.0563 340.9223 0001904   3.8796 140.6788  1.00276366 23013
INMARSAT GX5            
1 44801U 19080B   26065.79771006  .00000071  00000+0  00000+0 0  9997
2 44801   0.0509  25.5952 0001944 331.1556 105.9114  1.00272913  5767
JCSAT-18 (KACIFIC 1)    
1 44868U 19091A   26064.56919987 -.00000208  00000+0  00000+0 0  9991
2 44868   0.0469 320.1254 0000385  70.6229 127.4866  1.00272280 22976
ELEKTRO-L 3             
1 44903U 19095A   26065.74003182 -.00000099  00000+0  00000+0 0  9995
2 44903   0.0441 316.7449 0001638  18.7176 171.3440  1.00270371 22682
SHIJIAN-20 (SJ-20)      
1 44910U 19097A   26064.84868844 -.00000051  00000+0  00000+0 0  9997
2 44910   4.6532  76.3312 0000512  31.0122  76.8503  1.00081890 22661
TJS-5                   
1 44978U 20002A   26065.81686347 -.00000346  00000+0  00000+0 0  9990
2 44978   0.2733 269.6985 0004383 123.8039 172.6285  1.00271620 22675
GSAT-30                 
1 45026U 20005A   26065.81201012 -.00000168  00000+0  00000+0 0  9992
2 45026   0.0200 189.7518 0000833 233.3844 116.6925  1.00272842 22483
EUTELSAT KONNECT        
1 45027U 20005B   26065.36906252  .00000045  00000+0  00000+0 0  9994
2 45027   0.0683  97.6892 0001063 228.9919 337.4535  1.00271511 23304
JCSAT-17                
1 45245U 20013A   26065.60851587 -.00000319  00000+0  00000+0 0  9997
2 45245   5.3948 355.8577 0004716 353.3813 170.1186  1.00272564 22202
GEO-KOMPSAT-2B          
1 45246U 20013B   26063.73100142 -.00000355  00000+0  00000+0 0  9994
2 45246   0.0424 308.9242 0001783  13.3436 231.5985  1.00269583 22236
BEIDOU-3 G2             
1 45344U 20017A   26065.81140345 -.00000143  00000+0  00000+0 0  9992
2 45344   2.6592  45.6301 0002728 310.2866 180.7453  1.00272736 22235
BEIDOU-3 G3             
1 45807U 20040A   26065.81738347 -.00000356  00000+0  00000+0 0  9993
2 45807   2.1959  67.1365 0004591 319.6533 182.5056  1.00274500 21042
APSTAR-6D               
1 45863U 20045A   26065.60816920 -.00000321  00000+0  00000+0 0  9993
2 45863   0.0421 110.9185 0002256 323.0142  83.3486  1.00271601 20833
KOREASAT 116            
1 45920U 20048A   26065.81851014  .00000000  00000+0  00000+0 0  9999
2 45920   0.0201 140.1723 0001057 225.1714 210.0810  1.00268848 20616
EXPRESS 103             
1 45985U 20053A   26065.87058684 -.00000284  00000+0  00000+0 0  9999
2 45985   0.0180 245.1041 0000351  39.3015 290.0873  1.00272222 20626
