[{"OBJECT_NAME":"TJS-4","OBJECT_ID":"2019-070A","EPOCH":"2026-03-06T19:29:25.161792","MEAN_MOTION":1.00280065,"ECCENTRICITY":0.0001534,"INCLINATION":0.0635,"RA_OF_ASC_NODE":279.9248,"ARG_OF_PERICENTER":83.4311,"MEAN_ANOMALY":177.0018,"EPHEMERIS_TYPE":0,"CLASSIFICATION_TYPE":"U","NORAD_CAT_ID":44637,"ELEMENT_SET_NO":999,"REV_AT_EPOCH":2344,"BSTAR":0,"MEAN_MOTION_DOT":-1.74e-6,"MEAN_MOTION_DDOT":0},{"OBJECT_NAME":"BEIDOU-3 IGSO-3","OBJECT_ID":"2019-073A","EPOCH":"2026-03-04T23:59:28.160736","MEAN_MOTION":1.00269134,"ECCENTRICITY":0.00405518,"INCLINATION":54.9773,"RA_OF_ASC_NODE":282.0232,"ARG_OF_PERICENTER":188.9231,"MEAN_ANOMALY":171.0493,"EPHEMERIS_TYPE":0,"CLASSIFICATION_TYPE":"U","NORAD_CAT_ID":44709,"ELEMENT_SET_NO":999,"REV_AT_EPOCH":2341,"BSTAR":0,"MEAN_MOTION_DOT":-1.62e-6,"MEAN_MOTION_DDOT":0},{"OBJECT_NAME":"TIBA-1","OBJECT_ID":"2019-080A","EPOCH":"2026-03-04T19:09:38.947680","MEAN_MOTION":1.00276366,"ECCENTRICITY":0.00019044,"INCLINATION":0.0563,"RA_OF_ASC_NODE":340.9223,"ARG_OF_PERICENTER":3.8796,"MEAN_ANOMALY":140.6788,"EPHEMERIS_TYPE":0,"CLASSIFICATION_TYPE":"U","NORAD_CAT_ID":44800,"ELEMENT_SET_NO":999,"REV_AT_EPOCH":2301,"BSTAR":0,"MEAN_MOTION_DOT":1.45e-6,"MEAN_MOTION_DDOT":0},{"OBJECT_NAME":"INMARSAT GX5","OBJECT_ID":"2019-080B","EPOCH":"2026-03-06T19:08:42.149184","MEAN_MOTION":1.00272913,"ECCENTRICITY":0.0001944,"INCLINATION":0.0509,"RA_OF_ASC_NODE":25.5952,"ARG_OF_PERICENTER":331.1556,"MEAN_ANOMALY":105.9114,"EPHEMERIS_TYPE":0,"CLASSIFICATION_TYPE":"U","NORAD_CAT_ID":44801,"ELEMENT_SET_NO":999,"REV_AT_EPOCH":576,"BSTAR":0,"MEAN_MOTION_DOT":7.1e-7,"MEAN_MOTION_DDOT":0},{"OBJECT_NAME":"JCSAT-18 (KACIFIC 1)","OBJECT_ID":"2019-091A","EPOCH":"2026-03-05T13:39:38.868768","MEAN_MOTION":1.0027228,"ECCENTRICITY":3.85e-5,"INCLINATION":0.0469,"RA_OF_ASC_NODE":320.1254,"ARG_OF_PERICENTER":70.6229,"MEAN_ANOMALY":127.4866,"EPHEMERIS_TYPE":0,"CLASSIFICATION_TYPE":"U","NORAD_CAT_ID":44868,"ELEMENT_SET_NO":999,"REV_AT_EPOCH":2297,"BSTAR":0,"MEAN_MOTION_DOT":-2.08e-6,"MEAN_MOTION_DDOT":0},{"OBJECT_NAME":"ELEKTRO-L 3","OBJECT_ID":"2019-095A","EPOCH":"2026-03-06T17:45:38.749248","MEAN_MOTION":1.00270371,"ECCENTRICITY":0.0001638,"INCLINATION":0.0441,"RA_OF_ASC_NODE":316.7449,"ARG_OF_PERICENTER":18.7176,"MEAN_ANOMALY":171.344,"EPHEMERIS_TYPE":0,"CLASSIFICATION_TYPE":"U","NORAD_CAT_ID":44903,"ELEMENT_SET_NO":999,"REV_AT_EPOCH":2268,"BSTAR":0,"MEAN_MOTION_DOT":-9.9e-7,"MEAN_MOTION_DDOT":0},{"OBJECT_NAME":"SHIJIAN-20 (SJ-20)","OBJECT_ID":"2019-097A","EPOCH":"2026-03-05T20:22:06.681216","MEAN_MOTION":1.0008189,"ECCENTRICITY":5.12e-5,"INCLINATION":4.6532,"RA_OF_ASC_NODE":76.3312,"ARG_OF_PERICENTER":31.0122,"MEAN_ANOMALY":76.8503,"EPHEMERIS_TYPE":0,"CLASSIFICATION_TYPE":"U","NORAD_CAT_ID":44910,"ELEMENT_SET_NO":999,"REV_AT_EPOCH":2266,"BSTAR":0,"MEAN_MOTION_DOT":-5.1e-7,"MEAN_MOTION_DDOT":0},{"OBJECT_NAME":"TJS-5","OBJECT_ID":"2020-002A","EPOCH":"2026-03-06T19:36:17.003808","MEAN_MOTION":1.0027162,"ECCENTRICITY":0.0004383,"INCLINATION":0.2733,"RA_OF_ASC_NODE":269.6985,"ARG_OF_PERICENTER":123.8039,"MEAN_ANOMALY":172.6285,"EPHEMERIS_TYPE":0,"CLASSIFICATION_TYPE":"U","NORAD_CAT_ID":44978,"ELEMENT_SET_NO":999,"REV_AT_EPOCH":2267,"BSTAR":0,"MEAN_MOTION_DOT":-3.46e-6,"MEAN_MOTION_DDOT":0},{"OBJECT_NAME":"GSAT-30","OBJECT_ID":"2020-005A","EPOCH":"2026-03-06T19:29:17.674368","MEAN_MOTION":1.00272842,"ECCENTRICITY":8.33e-5,"INCLINATION":0.02,"RA_OF_ASC_NODE":189.7518,"ARG_OF_PERICENTER":233.3844,"MEAN_ANOMALY":116.6925,"EPHEMERIS_TYPE":0,"CLASSIFICATION_TYPE":"U","NORAD_CAT_ID":45026,"ELEMENT_SET_NO":999,"REV_AT_EPOCH":2248,"BSTAR":0,"MEAN_MOTION_DOT":-1.68e-6,"MEAN_MOTION_DDOT":0},{"OBJECT_NAME":"EUTELSAT KONNECT","OBJECT_ID":"2020-005B","EPOCH":"2026-03-06T08:51:27.001728","MEAN_MOTION":1.00271511,"ECCENTRICITY":0.00010639,"INCLINATION":0.0683,"RA_OF_ASC_NODE":97.6892,"ARG_OF_PERICENTER":228.9919,"MEAN_ANOMALY":337.4535,"EPHEMERIS_TYPE":0,"CLASSIFICATION_TYPE":"U","NORAD_CAT_ID":45027,"ELEMENT_SET_NO":999,"REV_AT_EPOCH":2330,"BSTAR":0,"MEAN_MOTION_DOT":4.5e-7,"MEAN_MOTION_DDOT":0},{"OBJECT_NAME":"JCSAT-17","OBJECT_ID":"2020-013A","EPOCH":"2026-03-06T14:36:15.771168","MEAN_MOTION":1.00272564,"ECCENTRICITY":0.00047163,"INCLINATION":5.3948,"RA_OF_ASC_NODE":355.8577,"ARG_OF_PERICENTER":353.3813,"MEAN_ANOMALY":170.1186,"EPHEMERIS_TYPE":0,"CLASSIFICATION_TYPE":"U","NORAD_CAT_ID":45245,"ELEMENT_SET_NO":999,"REV_AT_EPOCH":2220,"BSTAR":0,"MEAN_MOTION_DOT":-3.19e-6,"MEAN_MOTION_DDOT":0},{"OBJECT_NAME":"GEO-KOMPSAT-2B","OBJECT_ID":"2020-013B","EPOCH":"2026-03-04T17:32:38.522688","MEAN_MOTION":1.00269583,"ECCENTRICITY":0.00017835,"INCLINATION":0.0424,"RA_OF_ASC_NODE":308.9242,"ARG_OF_PERICENTER":13.3436,"MEAN_ANOMALY":231.5985,"EPHEMERIS_TYPE":0,"CLASSIFICATION_TYPE":"U","NORAD_CAT_ID":45246,"ELEMENT_SET_NO":999,"REV_AT_EPOCH":2223,"BSTAR":0,"MEAN_MOTION_DOT":-3.55e-6,"MEAN_MOTION_DDOT":0},{"OBJECT_NAME":"BEIDOU-3 G2","OBJECT_ID":"2020-017A","EPOCH":"2026-03-06T19:28:25.258080","MEAN_MOTION":1.00272736,"ECCENTRICITY":0.0002728,"INCLINATION":2.6592,"RA_OF_ASC_NODE":45.6301,"ARG_OF_PERICENTER":310.2866,"MEAN_ANOMALY":180.7453,"EPHEMERIS_TYPE":0,"CLASSIFICATION_TYPE":"U","NORAD_CAT_ID":45344,"ELEMENT_SET_NO":999,"REV_AT_EPOCH":2223,"BSTAR":0,"MEAN_MOTION_DOT":-1.43e-6,"MEAN_MOTION_DDOT":0},{"OBJECT_NAME":"BEIDOU-3 G3","OBJECT_ID":"2020-040A","EPOCH":"2026-03-06T19:37:01.931808","MEAN_MOTION":1.002745,"ECCENTRICITY":0.0004591,"INCLINATION":2.1959,"RA_OF_ASC_NODE":67.1365,"ARG_OF_PERICENTER":319.6533,"MEAN_ANOMALY":182.5056,"EPHEMERIS_TYPE":0,"CLASSIFICATION_TYPE":"U","NORAD_CAT_ID":45807,"ELEMENT_SET_NO":999,"REV_AT_EPOCH":2104,"BSTAR":0,"MEAN_MOTION_DOT":-3.56e-6,"MEAN_MOTION_DDOT":0},{"OBJECT_NAME":"APSTAR-6D","OBJECT_ID":"2020-045A","EPOCH":"2026-03-06T14:35:45.818880","MEAN_MOTION":1.00271601,"ECCENTRICITY":0.00022564,"INCLINATION":0.0421,"RA_OF_ASC_NODE":110.9185,"ARG_OF_PERICENTER":323.0142,"MEAN_ANOMALY":83.3486,"EPHEMERIS_TYPE":0,"CLASSIFICATION_TYPE":"U","NORAD_CAT_ID":45863,"ELEMENT_SET_NO":999,"REV_AT_EPOCH":2083,"BSTAR":0,"MEAN_MOTION_DOT":-3.21e-6,"MEAN_MOTION_DDOT":0},{"OBJECT_NAME":"KOREASAT 116","OBJECT_ID":"2020-048A","EPOCH":"2026-03-06T19:38:39.276096","MEAN_MOTION":1.00268848,"ECCENTRICITY":0.0001057,"INCLINATION":0.0201,"RA_OF_ASC_NODE":140.1723,"ARG_OF_PERICENTER":225.1714,"MEAN_ANOMALY":210.081,"EPHEMERIS_TYPE":0,"CLASSIFICATION_TYPE":"U","NORAD_CAT_ID":45920,"ELEMENT_SET_NO":999,"REV_AT_EPOCH":2061,"BSTAR":0,"MEAN_MOTION_DOT":0,"MEAN_MOTION_DDOT":0},{"OBJECT_NAME":"EXPRESS 103","OBJECT_ID":"2020-053A","EPOCH":"2026-03-06T20:53:38.702976","MEAN_MOTION":1.00272222,"ECCENTRICITY":3.51e-5,"INCLINATION":0.018,"RA_OF_ASC_NODE":245.1041,"ARG_OF_PERICENTER":39.3015,"MEAN_ANOMALY":290.0873,"EPHEMERIS_TYPE":0,"CLASSIFICATION_TYPE":"U","NORAD_CAT_ID":45985,"ELEMENT_SET_NO":999,"REV_AT_EPOCH":2062,"BSTAR":0,"MEAN_MOTION_DOT":-2.84e-6,"MEAN_MOTION_DDOT":0}]
